{
  "norad_id": 67300,
  "name": "TIANHUI 7",
  "history": [
    {
      "epoch": "2026-03-21T19:01:53.648256Z",
      "apogee_km": 486.7967485407835,
      "perigee_km": 484.83928584897967,
      "latitude_deg": 1.0190685365168324e-05,
      "longitude_deg": 52.563354547882724,
      "height_km": 488.75816303550664,
      "semi_major_axis_km": 6863.955017194881,
      "eccentricity": 0.00014259,
      "inclination_deg": 97.4062,
      "raan_deg": 157.3457,
      "arg_perigee_deg": 80.7728,
      "mean_anomaly_deg": 279.3672,
      "mean_motion_rev_day": 15.26655754
    }
  ]
}